start=new Date('2022-05-08T00:00:00.000Z').valueOf();
sats=[{"EPOCH":"2022-05-07T07:33:10.562976","TIME_SYSTEM":"UTC","PERIOD":"95.592","MEAN_MOTION_DOT":"-0.00001586","COUNTRY_CODE":"US","MEAN_ANOMALY":"307.5834","ECCENTRICITY":"0.00020640","CENTER_NAME":"EARTH","FILE":"3433971","OBJECT_ID":"2020-057U","EPHEMERIS_TYPE":"0","BSTAR":"-0.00008758300000","TLE_LINE1":"1 46135U 20057U   22127.31470559 -.00001586  00000-0 -87583-4 0  9998","SEMIMAJOR_AXIS":"6925.349","ARG_OF_PERICENTER":"52.5342","OBJECT_TYPE":"PAYLOAD","REV_AT_EPOCH":"9525","RCS_SIZE":"LARGE","PERIAPSIS":"545.785","MEAN_MOTION":"15.06399720","LAUNCH_DATE":"2020-08-18","APOAPSIS":"548.644","NORAD_CAT_ID":"46135","ELEMENT_SET_NO":"999","CLASSIFICATION_TYPE":"U","REF_FRAME":"TEME","GP_ID":"202922949","INCLINATION":"53.0556","RA_OF_ASC_NODE":"92.1206","SITE":"AFETR","DECAY_DATE":null,"OBJECT_NAME":"STARLINK-1639","TLE_LINE2":"2 46135  53.0556  92.1206 0002064  52.5342 307.5834 15.06399720 95251","MEAN_ELEMENT_THEORY":"SGP4","MEAN_MOTION_DDOT":"0.0000000000000"},{"APOAPSIS":"548.710","MEAN_MOTION":"15.06388993","LAUNCH_DATE":"2020-08-18","PERIAPSIS":"545.785","GP_ID":"202923701","REF_FRAME":"TEME","CLASSIFICATION_TYPE":"U","NORAD_CAT_ID":"46136","ELEMENT_SET_NO":"999","RA_OF_ASC_NODE":"122.1958","INCLINATION":"53.0538","TLE_LINE2":"2 46136  53.0538 122.1958 0002112  50.1469 309.9705 15.06388993 94834","MEAN_ELEMENT_THEORY":"SGP4","MEAN_MOTION_DDOT":"0.0000000000000","DECAY_DATE":null,"OBJECT_NAME":"STARLINK-1643","SITE":"AFETR","PERIOD":"95.593","EPOCH":"2022-05-07T07:07:58.424736","TIME_SYSTEM":"UTC","CENTER_NAME":"EARTH","FILE":"3433971","OBJECT_ID":"2020-057V","COUNTRY_CODE":"US","ECCENTRICITY":"0.00021120","MEAN_ANOMALY":"309.9705","MEAN_MOTION_DOT":"-0.00000064","TLE_LINE1":"1 46136U 20057V   22127.29720399 -.00000064  00000-0  14594-4 0  9997","SEMIMAJOR_AXIS":"6925.382","EPHEMERIS_TYPE":"0","BSTAR":"0.00001459400000","REV_AT_EPOCH":"9483","RCS_SIZE":"LARGE","OBJECT_TYPE":"PAYLOAD","ARG_OF_PERICENTER":"50.1469"},{"TLE_LINE1":"1 46137U 20057W   22127.44924587 -.00000858  00000-0 -38669-4 0  9991","SEMIMAJOR_AXIS":"6925.344","EPHEMERIS_TYPE":"0","BSTAR":"-0.00003866900000","OBJECT_TYPE":"PAYLOAD","ARG_OF_PERICENTER":"37.7552","REV_AT_EPOCH":"9499","RCS_SIZE":"LARGE","TIME_SYSTEM":"UTC","EPOCH":"2022-05-07T10:46:54.843168","PERIOD":"95.592","COUNTRY_CODE":"US","MEAN_ANOMALY":"322.3619","ECCENTRICITY":"0.00026090","MEAN_MOTION_DOT":"-0.00000858","CENTER_NAME":"EARTH","OBJECT_ID":"2020-057W","FILE":"3433971","RA_OF_ASC_NODE":"111.5248","INCLINATION":"53.0562","SITE":"AFETR","TLE_LINE2":"2 46137  53.0562 111.5248 0002609  37.7552 322.3619 15.06401487 94995","MEAN_ELEMENT_THEORY":"SGP4","MEAN_MOTION_DDOT":"0.0000000000000","DECAY_DATE":null,"OBJECT_NAME":"STARLINK-1586","PERIAPSIS":"545.402","APOAPSIS":"549.016","MEAN_MOTION":"15.06401487","LAUNCH_DATE":"2020-08-18","NORAD_CAT_ID":"46137","ELEMENT_SET_NO":"999","GP_ID":"202924449","CLASSIFICATION_TYPE":"U","REF_FRAME":"TEME"},{"PERIAPSIS":"545.619","LAUNCH_DATE":"2020-08-18","MEAN_MOTION":"15.06391528","APOAPSIS":"548.860","ELEMENT_SET_NO":"999","NORAD_CAT_ID":"46138","REF_FRAME":"TEME","CLASSIFICATION_TYPE":"U","GP_ID":"202929316","INCLINATION":"53.0541","RA_OF_ASC_NODE":"130.3351","SITE":"AFETR","OBJECT_NAME":"STARLINK-1590","DECAY_DATE":null,"MEAN_MOTION_DDOT":"0.0000000000000","MEAN_ELEMENT_THEORY":"SGP4","TLE_LINE2":"2 46138  53.0541 130.3351 0002340  42.8110 317.3060 15.06391528 95412","EPOCH":"2022-05-07T17:06:25.530336","TIME_SYSTEM":"UTC","PERIOD":"95.593","MEAN_MOTION_DOT":"0.00000375","ECCENTRICITY":"0.00023400","MEAN_ANOMALY":"317.3060","COUNTRY_CODE":"US","OBJECT_ID":"2020-057X","FILE":"3434015","CENTER_NAME":"EARTH","BSTAR":"0.00004412600000","EPHEMERIS_TYPE":"0","SEMIMAJOR_AXIS":"6925.375","TLE_LINE1":"1 46138U 20057X   22127.71279549  .00000375  00000-0  44126-4 0  9990","ARG_OF_PERICENTER":"42.8110","OBJECT_TYPE":"PAYLOAD","RCS_SIZE":"LARGE","REV_AT_EPOCH":"9541"},{"TLE_LINE1":"1 46140U 20057Z   22127.34050702 -.00000060  00000-0  14869-4 0  9993","SEMIMAJOR_AXIS":"6925.357","EPHEMERIS_TYPE":"0","BSTAR":"0.00001486900000","OBJECT_TYPE":"PAYLOAD","ARG_OF_PERICENTER":"44.6046","REV_AT_EPOCH":"9652","RCS_SIZE":"LARGE","TIME_SYSTEM":"UTC","EPOCH":"2022-05-07T08:10:19.806528","PERIOD":"95.592","COUNTRY_CODE":"US","MEAN_ANOMALY":"315.5141","ECCENTRICITY":"0.00024580","MEAN_MOTION_DOT":"-0.00000060","CENTER_NAME":"EARTH","OBJECT_ID":"2020-057Z","FILE":"3433971","RA_OF_ASC_NODE":"91.9989","INCLINATION":"53.0544","SITE":"AFETR","TLE_LINE2":"2 46140  53.0544  91.9989 0002458  44.6046 315.5141 15.06397301 96523","MEAN_ELEMENT_THEORY":"SGP4","MEAN_MOTION_DDOT":"0.0000000000000","DECAY_DATE":null,"OBJECT_NAME":"STARLINK-1594","PERIAPSIS":"545.520","APOAPSIS":"548.924","MEAN_MOTION":"15.06397301","LAUNCH_DATE":"2020-08-18","NORAD_CAT_ID":"46140","ELEMENT_SET_NO":"999","GP_ID":"202923449","REF_FRAME":"TEME","CLASSIFICATION_TYPE":"U"},{"RCS_SIZE":"LARGE","REV_AT_EPOCH":"9526","OBJECT_TYPE":"PAYLOAD","ARG_OF_PERICENTER":"49.7671","SEMIMAJOR_AXIS":"6925.335","TLE_LINE1":"1 46141U 20057AA  22127.38472507  .00002416  00000-0  18100-3 0  9996","BSTAR":"0.00018100000000","EPHEMERIS_TYPE":"0","OBJECT_ID":"2020-057AA","FILE":"3433971","CENTER_NAME":"EARTH","MEAN_ANOMALY":"310.3477","ECCENTRICITY":"0.00018170","COUNTRY_CODE":"US","MEAN_MOTION_DOT":"0.00002416","PERIOD":"95.592","EPOCH":"2022-05-07T09:14:00.246048","TIME_SYSTEM":"UTC","MEAN_MOTION_DDOT":"0.0000000000000","MEAN_ELEMENT_THEORY":"SGP4","TLE_LINE2":"2 46141  53.0544  91.8008 0001817  49.7671 310.3477 15.06404369 95261","OBJECT_NAME":"STARLINK-1596","DECAY_DATE":null,"SITE":"AFETR","RA_OF_ASC_NODE":"91.8008","INCLINATION":"53.0544","GP_ID":"202924201","REF_FRAME":"TEME","CLASSIFICATION_TYPE":"U","ELEMENT_SET_NO":"999","NORAD_CAT_ID":"46141","APOAPSIS":"548.459","LAUNCH_DATE":"2020-08-18","MEAN_MOTION":"15.06404369","PERIAPSIS":"545.942"},{"ARG_OF_PERICENTER":"48.5086","OBJECT_TYPE":"PAYLOAD","REV_AT_EPOCH":"9541","RCS_SIZE":"LARGE","EPHEMERIS_TYPE":"0","BSTAR":"0.00053432000000","TLE_LINE1":"1 46142U 20057AB  22127.73485957  .00007695  00000-0  53432-3 0  9990","SEMIMAJOR_AXIS":"6925.214","MEAN_MOTION_DOT":"0.00007695","COUNTRY_CODE":"US","ECCENTRICITY":"0.00017500","MEAN_ANOMALY":"311.6053","CENTER_NAME":"EARTH","FILE":"3434022","OBJECT_ID":"2020-057AB","EPOCH":"2022-05-07T17:38:11.866848","TIME_SYSTEM":"UTC","PERIOD":"95.589","SITE":"AFETR","OBJECT_NAME":"STARLINK-1597","DECAY_DATE":null,"TLE_LINE2":"2 46142  53.0537 130.2405 0001750  48.5086 311.6053 15.06443752 95416","MEAN_MOTION_DDOT":"0.0000000000000","MEAN_ELEMENT_THEORY":"SGP4","INCLINATION":"53.0537","RA_OF_ASC_NODE":"130.2405","NORAD_CAT_ID":"46142","ELEMENT_SET_NO":"999","REF_FRAME":"TEME","CLASSIFICATION_TYPE":"U","GP_ID":"202929740","PERIAPSIS":"545.868","MEAN_MOTION":"15.06443752","LAUNCH_DATE":"2020-08-18","APOAPSIS":"548.291"},{"PERIOD":"95.592","TIME_SYSTEM":"UTC","EPOCH":"2022-05-07T05:39:02.921472","CENTER_NAME":"EARTH","OBJECT_ID":"2020-057AD","FILE":"3433971","COUNTRY_CODE":"US","MEAN_ANOMALY":"302.4748","ECCENTRICITY":"0.00020240","MEAN_MOTION_DOT":"0.00000378","TLE_LINE1":"1 46144U 20057AD  22127.23545048  .00000378  00000-0  44259-4 0  9994","SEMIMAJOR_AXIS":"6925.335","EPHEMERIS_TYPE":"0","BSTAR":"0.00004425900000","REV_AT_EPOCH":"8321","RCS_SIZE":"LARGE","OBJECT_TYPE":"PAYLOAD","ARG_OF_PERICENTER":"57.6437","APOAPSIS":"548.601","MEAN_MOTION":"15.06404513","LAUNCH_DATE":"2020-08-18","PERIAPSIS":"545.798","GP_ID":"202922700","CLASSIFICATION_TYPE":"U","REF_FRAME":"TEME","NORAD_CAT_ID":"46144","ELEMENT_SET_NO":"999","RA_OF_ASC_NODE":"112.4886","INCLINATION":"53.0554","TLE_LINE2":"2 46144  53.0554 112.4886 0002024  57.6437 302.4748 15.06404513 83214","MEAN_MOTION_DDOT":"0.0000000000000","MEAN_ELEMENT_THEORY":"SGP4","DECAY_DATE":null,"OBJECT_NAME":"STARLINK-1606","SITE":"AFETR"},{"SEMIMAJOR_AXIS":"6925.343","TLE_LINE1":"1 46146U 20057AF  22127.28153573  .00000102  00000-0  25752-4 0  9991","BSTAR":"0.00002575200000","EPHEMERIS_TYPE":"0","OBJECT_TYPE":"PAYLOAD","ARG_OF_PERICENTER":"46.8549","RCS_SIZE":"LARGE","REV_AT_EPOCH":"9469","EPOCH":"2022-05-07T06:45:24.687072","TIME_SYSTEM":"UTC","PERIOD":"95.592","ECCENTRICITY":"0.00021150","MEAN_ANOMALY":"313.2616","COUNTRY_CODE":"US","MEAN_MOTION_DOT":"0.00000102","OBJECT_ID":"2020-057AF","FILE":"3433971","CENTER_NAME":"EARTH","RA_OF_ASC_NODE":"132.2600","INCLINATION":"53.0559","SITE":"AFETR","MEAN_ELEMENT_THEORY":"SGP4","MEAN_MOTION_DDOT":"0.0000000000000","TLE_LINE2":"2 46146  53.0559 132.2600 0002115  46.8549 313.2616 15.06401687 94697","DECAY_DATE":null,"OBJECT_NAME":"STARLINK-1608","PERIAPSIS":"545.744","APOAPSIS":"548.673","LAUNCH_DATE":"2020-08-18","MEAN_MOTION":"15.06401687","ELEMENT_SET_NO":"999","NORAD_CAT_ID":"46146","GP_ID":"202922950","REF_FRAME":"TEME","CLASSIFICATION_TYPE":"U"},{"OBJECT_TYPE":"PAYLOAD","ARG_OF_PERICENTER":"35.3293","RCS_SIZE":"LARGE","REV_AT_EPOCH":"9595","SEMIMAJOR_AXIS":"6925.355","TLE_LINE1":"1 46147U 20057AG  22127.32945144  .00000214  00000-0  33277-4 0  9995","BSTAR":"0.00003327700000","EPHEMERIS_TYPE":"0","ECCENTRICITY":"0.00027300","MEAN_ANOMALY":"324.7876","COUNTRY_CODE":"US","MEAN_MOTION_DOT":"0.00000214","OBJECT_ID":"2020-057AG","FILE":"3433971","CENTER_NAME":"EARTH","TIME_SYSTEM":"UTC","EPOCH":"2022-05-07T07:54:24.604416","PERIOD":"95.592","SITE":"AFETR","MEAN_MOTION_DDOT":"0.0000000000000","MEAN_ELEMENT_THEORY":"SGP4","TLE_LINE2":"2 46147  53.0547 132.0551 0002730  35.3293 324.7876 15.06397804 95950","OBJECT_NAME":"STARLINK-1611","DECAY_DATE":null,"RA_OF_ASC_NODE":"132.0551","INCLINATION":"53.0547","ELEMENT_SET_NO":"999","NORAD_CAT_ID":"46147","GP_ID":"202923702","REF_FRAME":"TEME","CLASSIFICATION_TYPE":"U","PERIAPSIS":"545.330","APOAPSIS":"549.111","LAUNCH_DATE":"2020-08-18","MEAN_MOTION":"15.06397804"}];
